[{"OBJECT_NAME":"STARLINK-35789","OBJECT_ID":"2025-299M","EPOCH":"2026-03-09T07:14:56.412384","MEAN_MOTION":15.28434906,"ECCENTRICITY":0.00017825,"INCLINATION":43.001,"RA_OF_ASC_NODE":171.4723,"ARG_OF_PERICENTER":273.4705,"MEAN_ANOMALY":86.5943,"EPHEMERIS_TYPE":0,"CLASSIFICATION_TYPE":"U","NORAD_CAT_ID":67113,"ELEMENT_SET_NO":999,"REV_AT_EPOCH":1305,"BSTAR":0.00093654457,"MEAN_MOTION_DOT":0.00026284,"MEAN_MOTION_DDOT":0},{"OBJECT_NAME":"DELTA 1 R\/B(1)","OBJECT_ID":"1977-108B","EPOCH":"2026-03-09T17:09:28.687104","MEAN_MOTION":12.7159019,"ECCENTRICITY":0.11493958,"INCLINATION":28.2947,"RA_OF_ASC_NODE":96.6821,"ARG_OF_PERICENTER":61.5787,"MEAN_ANOMALY":309.5754,"EPHEMERIS_TYPE":0,"CLASSIFICATION_TYPE":"U","NORAD_CAT_ID":10490,"ELEMENT_SET_NO":999,"REV_AT_EPOCH":20703,"BSTAR":0.00020105003,"MEAN_MOTION_DOT":8.74e-6,"MEAN_MOTION_DDOT":0}]
